OBJECT_NAME,OBJECT_ID,EPOCH,MEAN_MOTION,ECCENTRICITY,INCLINATION,RA_OF_ASC_NODE,ARG_OF_PERICENTER,MEAN_ANOMALY,EPHEMERIS_TYPE,CLASSIFICATION_TYPE,NORAD_CAT_ID,ELEMENT_SET_NO,REV_AT_EPOCH,BSTAR,MEAN_MOTION_DOT,MEAN_MOTION_DDOT
SL-12 R/B(2),1985-042D,2026-06-17T15:57:19.399104,14.22006065,.0036355,71.1077,236.5073,327.0243,146.4490,0,U,15772,999,12860,.62625E-4,.92E-6,0
SL-14 R/B,1985-069B,2026-06-17T18:36:01.258848,14.86515918,.0017836,82.5271,290.8130,217.0859,142.9126,0,U,15945,999,18770,.37275E-4,.355E-5,0
SL-16 R/B,1985-097B,2026-06-17T18:30:19.667808,14.16610066,.0005395,71.0033,289.8484,110.0062,357.9401,0,U,16182,999,10140,-.14376E-4,-.77E-6,0
SL-14 R/B,1986-006B,2026-06-17T10:55:38.446176,14.86945864,.00749394,82.5262,165.8610,302.5715,56.8280,0,U,16496,999,16403,.4603211E-4,.458E-5,0
COSMOS 1743,1986-034A,2026-06-17T12:43:04.790784,15.66967328,.0003927,82.5281,328.3671,269.4180,90.6630,0,U,16719,999,19584,.36012E-3,.38337E-3,0
SL-14 R/B,1986-046B,2026-06-17T13:22:04.306656,14.85671188,.0021605,82.4816,345.8258,257.1384,102.7418,0,U,16792,999,14123,.33183E-4,.313E-5,0
SL-14 R/B,1986-055B,2026-06-17T16:24:34.409376,14.85723376,.0019024,82.5204,32.6661,6.0559,53.9290,0,U,16882,999,13421,.31183E-4,.296E-5,0
AJISAI (EGS),1986-061A,2026-06-17T20:40:22.558080,12.44516785,.0011209,50.0066,145.3216,182.3003,261.2218,0,U,16908,999,48047,-.14485E-3,-.118E-5,0
SL-14 R/B,1987-024B,2026-06-17T14:54:53.317152,14.86213426,.0016781,82.5279,358.8424,291.6906,68.2524,0,U,17567,999,10297,.31152E-4,.298E-5,0
COSMOS 1833,1987-027A,2026-06-17T02:35:56.880672,14.13049961,.0022788,70.9178,117.0337,55.2743,305.0520,0,U,17589,999,2436,.19662632E-3,.32E-5,0
SL-16 R/B,1987-027B,2026-06-17T18:44:20.505696,14.17171661,.0006541,71.0032,65.5779,311.5609,48.4953,0,U,17590,999,2952,-.71973E-4,-.193E-5,0
SL-14 R/B,1987-038B,2026-06-17T14:24:38.161152,14.85445370,.0018935,82.5008,202.6830,189.7934,170.2916,0,U,17912,999,9406,.27099E-4,.259E-5,0
COSMOS 1844,1987-041A,2026-06-17T11:03:23.496768,14.14567818,.0032887,70.8968,183.7304,235.1707,124.6321,0,U,17973,999,1769,-.55836518E-4,-.156E-5,0
SL-14 R/B,1987-055B,2026-06-17T18:17:08.497824,14.85711401,.0021654,82.4995,254.6873,45.8715,314.4278,0,U,18153,999,8479,.32773E-4,.31E-5,0
COSMOS 1867,1987-060A,2026-06-17T18:17:14.642592,14.31515782,.0016546,65.0115,26.4489,282.1526,77.7705,0,U,18187,999,3426,.14111E-4,-.63E-6,0
SL-14 R/B,1988-001B,2026-06-17T19:57:04.559328,14.85610044,.0016427,82.5132,101.1677,267.2265,92.7070,0,U,18749,999,5689,.36572E-4,.341E-5,0
COSMOS 1933,1988-020A,2026-06-17T10:23:17.662848,15.18714160,.0003593,82.5121,152.1919,184.2553,175.8651,0,U,18958,999,6536,.15573007E-3,.3261E-4,0
SL-3 R/B,1988-032B,2026-06-17T18:28:03.295776,15.20843849,.0023829,97.5257,151.8094,242.8338,117.0468,0,U,19046,999,6731,.15049E-3,.3274E-4,0
SL-16 R/B,1988-039B,2026-06-17T13:02:49.784928,14.19629596,.002224,71.0137,217.4045,192.6408,167.4163,0,U,19120,999,97255,.39576E-4,.36E-6,0
COSMOS 1953,1988-050A,2026-06-17T17:42:57.962304,15.29985621,.0012179,82.5076,57.4792,124.5915,235.6476,0,U,19210,999,5307,.20377E-3,.5959E-4,0
SL-8 R/B,1988-053B,2026-06-17T18:43:39.445824,14.38967585,.0019168,74.0481,287.9638,83.0871,29.7664,0,U,19257,999,99099,.53193E-4,.138E-5,0
COSMOS 1975,1988-093A,2026-06-17T14:41:47.071104,15.29329596,.001137,82.5186,17.2741,170.0816,190.0651,0,U,19573,999,3467,.18695E-3,.5359E-4,0
SL-14 R/B,1988-093B,2026-06-17T19:43:25.426848,14.85742303,.0022069,82.5312,308.0488,68.5001,47.8768,0,U,19574,999,1588,.39405E-4,.368E-5,0
SL-16 R/B,1988-102B,2026-06-17T18:46:24.520800,14.16164154,.0015761,71.0000,300.8867,224.5291,135.4567,0,U,19650,999,94106,-.40504E-4,-.128E-5,0
INTERCOSMOS 24,1989-080A,2026-06-17T17:33:05.895072,12.59662854,.1188367,82.6065,39.2911,60.6439,310.8059,0,U,20261,999,67939,.21158E-3,.748E-5,0
SL-14 R/B,1989-080C,2026-06-17T19:15:17.142336,12.50571077,.1228727,82.5933,108.9126,315.9941,34.9427,0,U,20262,999,67266,.69182E-4,.231E-5,0
DELTA 1 R/B,1989-089B,2026-06-17T11:53:03.139008,14.50731484,.00692733,97.0635,0.0041,166.0115,194.3023,0,U,20323,999,91020,.65327207E-4,.23E-5,0
ARIANE 40 R/B,1990-005H,2026-06-17T17:44:59.356896,14.39927722,.0008845,98.2959,226.3385,262.3989,97.6195,0,U,20443,999,90720,.7566E-4,.196E-5,0
DELTA 2 R/B(1),1990-008B,2026-06-17T13:44:05.709984,15.68875859,.0064898,35.5987,233.0827,118.2484,242.4826,0,U,20453,999,94176,.54779E-3,.74176E-3,0
COSMOS 2058,1990-010A,2026-06-17T19:08:03.302016,15.12018674,.00091,82.4686,308.7528,358.2380,1.8816,0,U,20465,999,95736,.20017E-3,.3469E-4,0
SL-14 R/B,1990-010B,2026-06-17T12:07:18.960384,14.83646353,.00190606,82.5015,173.6463,335.2299,24.7999,0,U,20466,999,94328,.3222685E-4,.29E-5,0
