SL-12 R/B(2)            
1 15772U 85042D   26168.66480786  .00000092  00000+0  62625-4 0  9994
2 15772  71.1077 236.5073 0036355 327.0243 146.4490 14.22006065128607
SL-14 R/B               
1 15945U 85069B   26168.77501457  .00000355  00000+0  37275-4 0  9991
2 15945  82.5271 290.8130 0017836 217.0859 142.9126 14.86515918187707
SL-16 R/B               
1 16182U 85097B   26168.77106097 -.00000077  00000+0 -14376-4 0  9997
2 16182  71.0033 289.8484 0005395 110.0062 357.9401 14.16610066101405
SL-14 R/B               
1 16496U 86006B   26168.45530609  .00000458  00000+0  46032-4 0  9996
2 16496  82.5262 165.8610 0074939 302.5715  56.8280 14.86945864164033
COSMOS 1743             
1 16719U 86034A   26168.52991656  .00038337  00000+0  36012-3 0  9999
2 16719  82.5281 328.3671 0003927 269.4180  90.6630 15.66967328195847
SL-14 R/B               
1 16792U 86046B   26168.55699429  .00000313  00000+0  33183-4 0  9999
2 16792  82.4816 345.8258 0021605 257.1384 102.7418 14.85671188141238
SL-14 R/B               
1 16882U 86055B   26168.68373159  .00000296  00000+0  31183-4 0  9990
2 16882  82.5204  32.6661 0019024   6.0559  53.9290 14.85723376134218
AJISAI (EGS)            
1 16908U 86061A   26168.86137220 -.00000118  00000+0 -14485-3 0  9993
2 16908  50.0066 145.3216 0011209 182.3003 261.2218 12.44516785480473
SL-14 R/B               
1 17567U 87024B   26168.62145043  .00000298  00000+0  31152-4 0  9999
2 17567  82.5279 358.8424 0016781 291.6906  68.2524 14.86213426102974
COSMOS 1833             
1 17589U 87027A   26168.10829723  .00000320  00000+0  19663-3 0  9991
2 17589  70.9178 117.0337 0022788  55.2743 305.0520 14.13049961 24367
SL-16 R/B               
1 17590U 87027B   26168.78079289 -.00000193  00000+0 -71973-4 0  9994
2 17590  71.0032  65.5779 0006541 311.5609  48.4953 14.17171661 29523
SL-14 R/B               
1 17912U 87038B   26168.60044168  .00000259  00000+0  27099-4 0  9994
2 17912  82.5008 202.6830 0018935 189.7934 170.2916 14.85445370 94069
COSMOS 1844             
1 17973U 87041A   26168.46068862 -.00000156  00000+0 -55837-4 0  9995
2 17973  70.8968 183.7304 0032887 235.1707 124.6321 14.14567818 17693
SL-14 R/B               
1 18153U 87055B   26168.76190391  .00000310  00000+0  32773-4 0  9991
2 18153  82.4995 254.6873 0021654  45.8715 314.4278 14.85711401 84799
COSMOS 1867             
1 18187U 87060A   26168.76197503 -.00000063  00000+0  14111-4 0  9998
2 18187  65.0115  26.4489 0016546 282.1526  77.7705 14.31515782 34261
SL-14 R/B               
1 18749U 88001B   26168.83130277  .00000341  00000+0  36572-4 0  9994
2 18749  82.5132 101.1677 0016427 267.2265  92.7070 14.85610044 56891
COSMOS 1933             
1 18958U 88020A   26168.43284332  .00003261  00000+0  15573-3 0  9996
2 18958  82.5121 152.1919 0003593 184.2553 175.8651 15.18714160 65365
SL-3 R/B                
1 19046U 88032B   26168.76948259  .00003274  00000+0  15049-3 0  9991
2 19046  97.5257 151.8094 0023829 242.8338 117.0468 15.20843849 67317
SL-16 R/B               
1 19120U 88039B   26168.54363177  .00000036  00000+0  39576-4 0  9992
2 19120  71.0137 217.4045 0022240 192.6408 167.4163 14.19629596972555
COSMOS 1953             
1 19210U 88050A   26168.73817086  .00005959  00000+0  20377-3 0  9996
2 19210  82.5076  57.4792 0012179 124.5915 235.6476 15.29985621 53070
SL-8 R/B                
1 19257U 88053B   26168.78031766  .00000138  00000+0  53193-4 0  9995
2 19257  74.0481 287.9638 0019168  83.0871  29.7664 14.38967585990991
COSMOS 1975             
1 19573U 88093A   26168.61235036  .00005359  00000+0  18695-3 0  9995
2 19573  82.5186  17.2741 0011370 170.0816 190.0651 15.29329596 34677
SL-14 R/B               
1 19574U 88093B   26168.82182207  .00000368  00000+0  39405-4 0  9998
2 19574  82.5312 308.0488 0022069  68.5001  47.8768 14.85742303 15888
SL-16 R/B               
1 19650U 88102B   26168.78222825 -.00000128  00000+0 -40504-4 0  9998
2 19650  71.0000 300.8867 0015761 224.5291 135.4567 14.16164154941062
INTERCOSMOS 24          
1 20261U 89080A   26168.73131823  .00000748  00000+0  21158-3 0  9995
2 20261  82.6065  39.2911 1188367  60.6439 310.8059 12.59662854679395
SL-14 R/B               
1 20262U 89080C   26168.80228174  .00000231  00000+0  69182-4 0  9997
2 20262  82.5933 108.9126 1228727 315.9941  34.9427 12.50571077672663
DELTA 1 R/B             
1 20323U 89089B   26168.49517522  .00000230  00000+0  65327-4 0  9993
2 20323  97.0635   0.0041 0069273 166.0115 194.3023 14.50731484910205
ARIANE 40 R/B           
1 20443U 90005H   26168.73957589  .00000196  00000+0  75660-4 0  9996
2 20443  98.2959 226.3385 0008845 262.3989  97.6195 14.39927722907201
DELTA 2 R/B(1)          
1 20453U 90008B   26168.57228831  .00074176  00000+0  54779-3 0  9999
2 20453  35.5987 233.0827 0064898 118.2484 242.4826 15.68875859941768
COSMOS 2058             
1 20465U 90010A   26168.79726044  .00003469  00000+0  20017-3 0  9993
2 20465  82.4686 308.7528 0009100 358.2380   1.8816 15.12018674957364
SL-14 R/B               
1 20466U 90010B   26168.50508056  .00000290  00000+0  32227-4 0  9990
2 20466  82.5015 173.6463 0019060 335.2299  24.7999 14.83646353943289
